*******************************************************************************
 Revised: Dec 04, 2019           Himalia  / (Jupiter)                       506

 SATELLITE PHYSICAL PROPERTIES:
  Radius (km)             = 85 +- 10         Density (g cm^-3)   =              
  GM (km^3/s^2)           = 0.136342         Geometric Albedo    =  0.03
                                             V(1,0)              = +8.14

 SATELLITE ORBITAL DATA:
  Semi-major axis, a (km) = 11480 (10^3)     Orbital period      = 250.5662 d
  Eccentricity, e         =   0.163          Rotational period   = 0.4 d 
  Inclination, i  (deg)   =  27.5 (inv pln)  Local invar ref. pln= Sun
*******************************************************************************
 

 

*******************************************************************************
Ephemeris / WWW_USER Thu Dec 26 16:03:36 2019 Pasadena, USA      / Horizons    
*******************************************************************************
Target body name: Himalia (506)                   {source: jup343_merged}
Center body name: Sun (10)                        {source: jup343_merged}
Center-site name: BODY CENTER
*******************************************************************************
Start time      : A.D. 2019-Dec-26 00:00:00.0000 TDB
Stop  time      : A.D. 2020-Jan-25 00:00:00.0000 TDB
Step-size       : 1440 minutes
*******************************************************************************
Center geodetic : 0.00000000,0.00000000,0.0000000 {E-lon(deg),Lat(deg),Alt(km)}
Center cylindric: 0.00000000,0.00000000,0.0000000 {E-lon(deg),Dxy(km),Dz(km)}
Center radii    : 696000.0 x 696000.0 x 696000.0 k{Equator, meridian, pole}    
Keplerian GM    : 1.3271244004207730E+11 km^3/s^2
Output units    : KM-S, deg                                                    
Output type     : GEOMETRIC osculating elements
Output format   : 10
Reference frame : ICRF/J2000.0                                                 
Coordinate systm: Ecliptic and Mean Equinox of Reference Epoch                 
*******************************************************************************
            JDTDB,            Calendar Date (TDB),                     EC,                     QR,                     IN,                     OM,                      W,                     Tp,                      N,                     MA,                     TA,                      A,                     AD,                     PR,
**************************************************************************************************************************************************************************************************************************************************************************************************************************************************
$$SOE
2458864.500000000, A.D. 2020-Jan-16 00:00:00.0000,  1.554487753919785E-01,  6.725606460178629E+08,  6.811792451227602E+00,  9.859337862804668E+01,  8.445034243699986E+01, -8.104698866008429E+07,  9.287958497558014E-07,  7.527610670269182E+01,  9.310363496303906E+01,  7.963526976472220E+08,  9.201447492765812E+08,  3.875986311681421E+08,
2458865.500000000, A.D. 2020-Jan-17 00:00:00.0000,  1.548331227490503E-01,  6.803593921225489E+08,  6.849732661048995E+00,  9.858001412586451E+01,  8.850931621930110E+01, -7.824001969191587E+07,  9.138703252913141E-07,  7.150123224664995E+01,  8.913999016308421E+01,  8.050000661828284E+08,  9.296407402431079E+08,  3.939289744256034E+08,
2458866.500000000, A.D. 2020-Jan-18 00:00:00.0000,  1.548584697798077E-01,  6.877583397308898E+08,  6.884087402577713E+00,  9.856845117096253E+01,  9.256724711008481E+01, -7.533349859790596E+07,  8.991223983364989E-07,  6.773403593442845E+01,  8.517601118651289E+01,  8.137788939938874E+08,  9.397994482568851E+08,  4.003904258931264E+08,
2458867.500000000, A.D. 2020-Jan-19 00:00:00.0000,  1.555172555893655E-01,  6.947469747917714E+08,  6.914958712878446E+00,  9.855852856816016E+01,  9.659291848307039E+01, -7.235910149407648E+07,  8.845545541681216E-07,  6.400557276209869E+01,  8.124307089067578E+01,  8.226893674146485E+08,  9.506317600375257E+08,  4.069845079691683E+08,
2458868.500000000, A.D. 2020-Jan-20 00:00:00.0000,  1.567935171220975E-01,  7.013214912571802E+08,  6.942445272934433E+00,  9.855009776634671E+01,  1.005566399441243E+02, -6.934901776607652E+07,  8.701690522041689E-07,  6.034536906079688E+01,  7.737100321114542E+01,  8.317316167488867E+08,  9.621417422405932E+08,  4.137127137400569E+08,
2458869.500000000, A.D. 2020-Jan-21 00:00:00.0000,  1.586637155635419E-01,  7.074844843891635E+08,  6.966642503549373E+00,  9.854302145399006E+01,  1.044316213091377E+02, -6.633431959321950E+07,  8.559679395511179E-07,  5.678005086373344E+01,  7.358673059309574E+01,  8.409057085456015E+08,  9.743269327020395E+08,  4.205764998497365E+08,
2458870.500000000, A.D. 2020-Jan-22 00:00:00.0000,  1.610979822323178E-01,  7.132443167243922E+08,  6.987643154429704E+00,  9.853717218968478E+01,  1.081950365153699E+02, -6.334354047880782E+07,  8.419529603284805E-07,  5.333228142381917E+01,  6.991320145421241E+01,  8.502117072293315E+08,  9.871790977342708E+08,  4.275773314693842E+08,
2458871.500000000, A.D. 2020-Jan-23 00:00:00.0000,  1.640615775058356E-01,  7.186141499630873E+08,  7.005536772205296E+00,  9.853243150580738E+01,  1.118286213162689E+02, -6.040165728796423E+07,  8.281256446906985E-07,  5.002016138198201E+01,  6.636879339496309E+01,  8.596496232569139E+08,  1.000685096550740E+09,  4.347166427075912E+08,
2458872.500000000, A.D. 2020-Jan-24 00:00:00.0000,  1.675163689375015E-01,  7.236108917056271E+08,  7.020409694950169E+00,  9.852868896964050E+01,  1.153188684989492E+02, -5.752948109404049E+07,  8.144873826057100E-07,  4.685703647894972E+01,  6.296711892220861E+01,  8.692193632469180E+08,  1.014827834788209E+09,  4.419957972194573E+08,
2458873.500000000, A.D. 2020-Jan-25 00:00:00.0000,  1.714223204884647E-01,  7.282541664786228E+08,  7.032345659825356E+00,  9.852584119421648E+01,  1.186569043404708E+02, -5.474341076180844E+07,  8.010393070086893E-07,  4.385162381993107E+01,  5.971714998609169E+01,  8.789208115139482E+08,  1.029587456549274E+09,  4.494161483090553E+08,
